{"type":"FeatureCollection","features":[{"type":"Feature","geometry":{"type":"Polygon","coordinates":[[[-75.562392,6.291432],[-75.562393,6.291433],[-75.562429,6.291438],[-75.562527,6.291471],[-75.562565,6.291486],[-75.562659,6.291524],[-75.562757,6.291563],[-75.562793,6.291578],[-75.562918,6.291628],[-75.562919,6.291629],[-75.56292,6.291629],[-75.56313,6.291719],[-75.56318,6.291755],[-75.563206,6.291768],[-75.563273,6.291801],[-75.563418,6.291874],[-75.563434,6.29188],[-75.563472,6.291732],[-75.563488,6.291593],[-75.563685,6.291374],[-75.563992,6.290924],[-75.564155,6.290784],[-75.564469,6.290474],[-75.564717,6.290222],[-75.564892,6.290045],[-75.565009,6.289896],[-75.56507,6.289819],[-75.565214,6.289636],[-75.565431,6.289257],[-75.565536,6.289044],[-75.565579,6.288891],[-75.565627,6.288709],[-75.565643,6.288401],[-75.565656,6.288251],[-75.565699,6.288081],[-75.565781,6.28757],[-75.565813,6.287444],[-75.56582,6.287408],[-75.565838,6.287312],[-75.565864,6.287169],[-75.565901,6.286971],[-75.565936,6.286836],[-75.565962,6.286723],[-75.565972,6.286699],[-75.566016,6.286588],[-75.566034,6.286544],[-75.566042,6.286523],[-75.566049,6.286505],[-75.566139,6.2862],[-75.566231,6.286016],[-75.566428,6.285669],[-75.56648,6.28561],[-75.566523,6.285562],[-75.566603,6.285471],[-75.566649,6.285372],[-75.566658,6.285363],[-75.566711,6.285299],[-75.567374,6.284757],[-75.567517,6.284614],[-75.567733,6.284541],[-75.567859,6.284489],[-75.567986,6.284398],[-75.568112,6.284224],[-75.568268,6.283962],[-75.56836,6.283679],[-75.568434,6.283452],[-75.568439,6.283179],[-75.568514,6.282003],[-75.568648,6.280983],[-75.56868,6.280842],[-75.568716,6.280686],[-75.568795,6.280341],[-75.568976,6.279551],[-75.569096,6.279026],[-75.569104,6.279011],[-75.569131,6.278955],[-75.569208,6.278622],[-75.569351,6.277989],[-75.569324,6.277983],[-75.569445,6.277458],[-75.569536,6.27708],[-75.56959,6.276853],[-75.569693,6.27642],[-75.569693,6.27642],[-75.569791,6.276012],[-75.569791,6.276012],[-75.569791,6.276012],[-75.569791,6.276011],[-75.569791,6.276011],[-75.570017,6.275066],[-75.570086,6.274757],[-75.57086,6.271276],[-75.570908,6.271059],[-75.570911,6.271045],[-75.570919,6.27101],[-75.570928,6.27097],[-75.57112,6.270108],[-75.572073,6.265818],[-75.572141,6.265517],[-75.572189,6.265345],[-75.572189,6.265345],[-75.572189,6.265345],[-75.572189,6.265345],[-75.572189,6.265345],[-75.572144,6.265338],[-75.571976,6.26531],[-75.57195,6.265306],[-75.571915,6.265301],[-75.571865,6.265294],[-75.571865,6.265294],[-75.571824,6.265287],[-75.571794,6.265282],[-75.571772,6.265278],[-75.571747,6.265274],[-75.571713,6.265268],[-75.571685,6.265264],[-75.571663,6.26526],[-75.571622,6.265253],[-75.571619,6.265253],[-75.571511,6.265237],[-75.571376,6.265217],[-75.571372,6.265217],[-75.570948,6.265148],[-75.570825,6.265127],[-75.570792,6.265122],[-75.570792,6.265122],[-75.570676,6.265102],[-75.570353,6.265051],[-75.570255,6.265036],[-75.570153,6.26502],[-75.570074,6.265009],[-75.570056,6.265007],[-75.570029,6.265003],[-75.569472,6.264915],[-75.56946,6.264913],[-75.569449,6.26491],[-75.5691,6.264858],[-75.568982,6.264839],[-75.568981,6.264839],[-75.568842,6.264817],[-75.568833,6.264815],[-75.568804,6.26481],[-75.568379,6.264743],[-75.568343,6.264738],[-75.568343,6.264738],[-75.568265,6.264725],[-75.568251,6.264723],[-75.567828,6.264654],[-75.567814,6.264652],[-75.567806,6.264651],[-75.567774,6.264645],[-75.567715,6.264636],[-75.56769,6.264632],[-75.567584,6.264615],[-75.567583,6.264615],[-75.567583,6.264615],[-75.567583,6.264615],[-75.567582,6.264615],[-75.567581,6.264615],[-75.567581,6.264615],[-75.567578,6.264614],[-75.567371,6.264583],[-75.567079,6.264538],[-75.566532,6.264454],[-75.566518,6.264452],[-75.566488,6.264447],[-75.566072,6.264382],[-75.565993,6.264371],[-75.565526,6.264295],[-75.565061,6.26422],[-75.564754,6.264173],[-75.564362,6.264113],[-75.564224,6.264102],[-75.564204,6.264103],[-75.56416,6.264098],[-75.564153,6.264091],[-75.563905,6.264127],[-75.563814,6.264141],[-75.563658,6.264162],[-75.563361,6.264253],[-75.563224,6.264228],[-75.563153,6.264215],[-75.56302,6.26419],[-75.562971,6.264182],[-75.562522,6.264108],[-75.562305,6.264072],[-75.561985,6.264019],[-75.561882,6.264001],[-75.561882,6.264001],[-75.561651,6.263959],[-75.561306,6.263897],[-75.560838,6.263814],[-75.560576,6.263771],[-75.560403,6.263742],[-75.560071,6.263684],[-75.559848,6.263644],[-75.559842,6.263643],[-75.559023,6.263498],[-75.558781,6.263449],[-75.558646,6.263421],[-75.558265,6.26335],[-75.557773,6.263269],[-75.557832,6.263189],[-75.55829,6.262571],[-75.558406,6.262396],[-75.558237,6.262495],[-75.558115,6.262514],[-75.558004,6.262506],[-75.557968,6.262503],[-75.557711,6.262462],[-75.5574,6.262412],[-75.557316,6.26239],[-75.557256,6.262361],[-75.557219,6.262344],[-75.557169,6.262304],[-75.557128,6.262272],[-75.556734,6.261907],[-75.556496,6.261687],[-75.556496,6.261687],[-75.556473,6.261665],[-75.556383,6.26157],[-75.556282,6.261567],[-75.556257,6.261565],[-75.556206,6.261561],[-75.556104,6.261588],[-75.556069,6.261615],[-75.556034,6.261641],[-75.555991,6.2617],[-75.555963,6.26174],[-75.555825,6.262051],[-75.55577,6.262173],[-75.555712,6.262506],[-75.555711,6.262516],[-75.555673,6.262893],[-75.555641,6.263217],[-75.555629,6.263318],[-75.555559,6.2639],[-75.55551,6.264304],[-75.555487,6.264501],[-75.555486,6.264513],[-75.555479,6.264571],[-75.555469,6.264664],[-75.555406,6.26521],[-75.555388,6.265372],[-75.555322,6.265948],[-75.555256,6.26653],[-75.555227,6.266777],[-75.555227,6.266777],[-75.555224,6.266809],[-75.555216,6.266878],[-75.555213,6.266899],[-75.555206,6.26696],[-75.555203,6.266986],[-75.555199,6.267026],[-75.555196,6.267053],[-75.555172,6.26726],[-75.555138,6.267556],[-75.555052,6.268286],[-75.555045,6.268352],[-75.554979,6.268744],[-75.554969,6.268809],[-75.55495,6.268924],[-75.554893,6.269228],[-75.554855,6.269431],[-75.554821,6.269616],[-75.55481,6.26968],[-75.554704,6.270272],[-75.554582,6.270982],[-75.554537,6.27125],[-75.554406,6.272015],[-75.554388,6.272112],[-75.554229,6.272967],[-75.554111,6.273603],[-75.554077,6.273809],[-75.553964,6.274494],[-75.553935,6.27466],[-75.55386,6.275084],[-75.553842,6.275192],[-75.553828,6.275274],[-75.553785,6.275529],[-75.553741,6.275799],[-75.553719,6.275926],[-75.55364,6.2763],[-75.553621,6.276362],[-75.553609,6.276424],[-75.553599,6.276561],[-75.553581,6.276654],[-75.553554,6.276795],[-75.553482,6.277161],[-75.553472,6.277223],[-75.553472,6.277223],[-75.553472,6.277223],[-75.553278,6.27835],[-75.553268,6.278405],[-75.553169,6.27894],[-75.553122,6.279193],[-75.553015,6.279778],[-75.553012,6.279798],[-75.552877,6.280568],[-75.552863,6.280642],[-75.552774,6.281137],[-75.552716,6.281475],[-75.552704,6.281598],[-75.552701,6.281664],[-75.552706,6.281726],[-75.552738,6.281813],[-75.552743,6.281826],[-75.552799,6.28196],[-75.552842,6.282063],[-75.552874,6.28214],[-75.552878,6.282148],[-75.552891,6.28218],[-75.552915,6.282236],[-75.55295,6.282315],[-75.552962,6.282342],[-75.552967,6.282373],[-75.552971,6.282402],[-75.552975,6.282451],[-75.552979,6.282507],[-75.552952,6.282819],[-75.552948,6.282922],[-75.552941,6.283149],[-75.552932,6.28339],[-75.552932,6.283392],[-75.552921,6.283413],[-75.552891,6.283468],[-75.552887,6.283475],[-75.552882,6.283594],[-75.552874,6.283786],[-75.552872,6.283821],[-75.552858,6.28405],[-75.552857,6.284074],[-75.552844,6.284251],[-75.552833,6.284322],[-75.552835,6.284375],[-75.552835,6.284375],[-75.55283,6.284414],[-75.552833,6.284487],[-75.552825,6.28459],[-75.552821,6.2848],[-75.552818,6.28496],[-75.552818,6.284982],[-75.552806,6.28534],[-75.552805,6.285388],[-75.552805,6.285388],[-75.552804,6.285412],[-75.552802,6.285481],[-75.552798,6.285627],[-75.552794,6.285797],[-75.552793,6.285805],[-75.552792,6.285816],[-75.552788,6.285872],[-75.552784,6.285933],[-75.552782,6.28596],[-75.552775,6.286064],[-75.552771,6.286118],[-75.552761,6.286251],[-75.552742,6.286475],[-75.552742,6.286475],[-75.552772,6.286502],[-75.552774,6.286504],[-75.552872,6.286551],[-75.55288,6.286555],[-75.552942,6.286614],[-75.552956,6.28664],[-75.55296,6.286671],[-75.552957,6.286696],[-75.552964,6.286721],[-75.552973,6.286732],[-75.55298,6.286743],[-75.552985,6.28675],[-75.552985,6.286751],[-75.552991,6.28676],[-75.552999,6.286769],[-75.553005,6.286776],[-75.553012,6.286785],[-75.553015,6.28679],[-75.55302,6.286799],[-75.553025,6.286811],[-75.55303,6.286825],[-75.553037,6.286846],[-75.553042,6.286858],[-75.553045,6.286864],[-75.553046,6.286867],[-75.553053,6.286877],[-75.553062,6.286892],[-75.553069,6.286902],[-75.553076,6.286913],[-75.553083,6.286922],[-75.553091,6.286932],[-75.553099,6.286941],[-75.553107,6.286948],[-75.553116,6.286958],[-75.553123,6.286965],[-75.553126,6.286968],[-75.553136,6.286972],[-75.553149,6.286978],[-75.553166,6.286985],[-75.553179,6.28699],[-75.553191,6.286995],[-75.553199,6.286999],[-75.553211,6.287002],[-75.553223,6.287005],[-75.553232,6.287006],[-75.553243,6.287007],[-75.553267,6.287007],[-75.553278,6.287004],[-75.55329,6.286998],[-75.5533,6.286992],[-75.553309,6.286986],[-75.553319,6.286981],[-75.553337,6.28698],[-75.553356,6.286986],[-75.553365,6.28699],[-75.553406,6.287019],[-75.553422,6.287025],[-75.553436,6.287023],[-75.553456,6.28701],[-75.553476,6.286997],[-75.553497,6.286991],[-75.553534,6.286976],[-75.55356,6.286976],[-75.553589,6.286988],[-75.553631,6.286996],[-75.55366,6.28701],[-75.55368,6.287015],[-75.553731,6.287032],[-75.553743,6.287035],[-75.553764,6.287041],[-75.553776,6.287042],[-75.553821,6.287042],[-75.553862,6.287042],[-75.553885,6.287036],[-75.553897,6.287032],[-75.553915,6.287027],[-75.553946,6.287022],[-75.553963,6.28702],[-75.554002,6.28702],[-75.554011,6.28702],[-75.554021,6.287022],[-75.554029,6.287026],[-75.554037,6.287032],[-75.554043,6.287039],[-75.55405,6.287047],[-75.554055,6.287055],[-75.55406,6.287064],[-75.554064,6.287073],[-75.554067,6.287083],[-75.55407,6.287092],[-75.554072,6.287101],[-75.554074,6.287111],[-75.554077,6.28712],[-75.554078,6.287129],[-75.55408,6.28714],[-75.554084,6.287158],[-75.554086,6.287167],[-75.554089,6.287177],[-75.554092,6.287185],[-75.554095,6.287194],[-75.554097,6.287204],[-75.554101,6.287213],[-75.554104,6.287221],[-75.554108,6.28723],[-75.554113,6.28724],[-75.554117,6.287248],[-75.554122,6.287256],[-75.554127,6.287265],[-75.554132,6.287272],[-75.554139,6.28728],[-75.554153,6.287294],[-75.554161,6.2873],[-75.554168,6.287307],[-75.554175,6.287313],[-75.554183,6.287318],[-75.554279,6.287371],[-75.554288,6.287377],[-75.554296,6.287381],[-75.554305,6.287385],[-75.554315,6.287388],[-75.554324,6.287388],[-75.554345,6.287388],[-75.554354,6.287387],[-75.554363,6.287385],[-75.554372,6.287383],[-75.554382,6.287381],[-75.554392,6.287379],[-75.554401,6.287377],[-75.55441,6.287375],[-75.55442,6.287375],[-75.554439,6.287375],[-75.554449,6.287376],[-75.554458,6.287376],[-75.554468,6.287377],[-75.554477,6.287379],[-75.554486,6.287381],[-75.554495,6.287382],[-75.554504,6.287383],[-75.554513,6.287385],[-75.554525,6.287408],[-75.55453,6.287444],[-75.554589,6.287477],[-75.554629,6.287484],[-75.554679,6.287503],[-75.554693,6.287533],[-75.554696,6.287568],[-75.554702,6.2876],[-75.554718,6.287656],[-75.554729,6.287671],[-75.554747,6.287692],[-75.554753,6.287715],[-75.554763,6.28775],[-75.554766,6.287757],[-75.554776,6.287764],[-75.554781,6.28778],[-75.554785,6.287791],[-75.554808,6.287796],[-75.554835,6.287796],[-75.554857,6.287796],[-75.554866,6.287798],[-75.554877,6.287798],[-75.554888,6.287801],[-75.554904,6.287801],[-75.554921,6.287803],[-75.554946,6.287812],[-75.554966,6.287823],[-75.554977,6.287837],[-75.554986,6.287852],[-75.554992,6.287866],[-75.555001,6.287907],[-75.555001,6.287929],[-75.555004,6.287955],[-75.555011,6.28798],[-75.555017,6.287998],[-75.555017,6.288004],[-75.555017,6.288031],[-75.55502,6.288073],[-75.555037,6.288103],[-75.555041,6.288113],[-75.555055,6.288123],[-75.555075,6.288138],[-75.555083,6.288148],[-75.555105,6.288174],[-75.555106,6.288175],[-75.555128,6.288187],[-75.555176,6.288203],[-75.55519,6.288208],[-75.55521,6.288223],[-75.555247,6.288242],[-75.555272,6.288266],[-75.555305,6.288275],[-75.555322,6.288305],[-75.555349,6.288317],[-75.555369,6.288341],[-75.555375,6.28837],[-75.555426,6.288434],[-75.555457,6.28845],[-75.555473,6.288466],[-75.555488,6.288484],[-75.555521,6.288504],[-75.555533,6.288519],[-75.555583,6.288555],[-75.555608,6.288634],[-75.555656,6.288681],[-75.555685,6.28872],[-75.555697,6.288737],[-75.555735,6.288745],[-75.555751,6.288771],[-75.555759,6.288795],[-75.555778,6.288829],[-75.555796,6.288869],[-75.555814,6.288885],[-75.555858,6.288914],[-75.55587,6.288957],[-75.555874,6.28898],[-75.555874,6.289009],[-75.555877,6.289059],[-75.55588,6.28909],[-75.555914,6.289084],[-75.555919,6.289085],[-75.555923,6.289084],[-75.556004,6.289095],[-75.556012,6.289097],[-75.556047,6.289108],[-75.55606,6.289121],[-75.556072,6.289136],[-75.556084,6.289152],[-75.556094,6.289168],[-75.556103,6.289185],[-75.556111,6.289202],[-75.556123,6.289217],[-75.556138,6.289229],[-75.556152,6.289241],[-75.556169,6.289249],[-75.556188,6.289254],[-75.556207,6.289256],[-75.556227,6.289256],[-75.556246,6.289256],[-75.556266,6.289256],[-75.556285,6.289256],[-75.556296,6.289256],[-75.556304,6.289256],[-75.556375,6.289257],[-75.556379,6.289257],[-75.556398,6.289256],[-75.556417,6.289255],[-75.556436,6.289253],[-75.556455,6.289252],[-75.556474,6.289251],[-75.556494,6.28925],[-75.556513,6.28925],[-75.556531,6.289249],[-75.556534,6.289249],[-75.556553,6.28925],[-75.556572,6.289251],[-75.55659,6.289253],[-75.556609,6.289256],[-75.556628,6.289261],[-75.556647,6.289265],[-75.556666,6.289268],[-75.556685,6.289271],[-75.556695,6.289272],[-75.556763,6.289273],[-75.556764,6.289273],[-75.556783,6.289273],[-75.556799,6.289273],[-75.556803,6.289273],[-75.556823,6.289273],[-75.556823,6.289273],[-75.556841,6.289273],[-75.55686,6.289273],[-75.556881,6.289271],[-75.5569,6.289269],[-75.556919,6.289266],[-75.556938,6.289265],[-75.556949,6.289265],[-75.556957,6.289265],[-75.556977,6.289267],[-75.556996,6.28927],[-75.557014,6.289277],[-75.557031,6.289285],[-75.557045,6.289287],[-75.557049,6.289288],[-75.557068,6.289284],[-75.557089,6.289281],[-75.557109,6.28928],[-75.557128,6.289279],[-75.557146,6.289277],[-75.557167,6.289274],[-75.557187,6.289273],[-75.557198,6.289273],[-75.557207,6.289273],[-75.55722,6.289273],[-75.557226,6.289273],[-75.557244,6.289271],[-75.557264,6.289269],[-75.557282,6.289267],[-75.557292,6.289265],[-75.557365,6.289252],[-75.557384,6.289244],[-75.557401,6.289237],[-75.557419,6.289232],[-75.557435,6.289231],[-75.557439,6.289231],[-75.557479,6.289232],[-75.557497,6.289233],[-75.557515,6.28924],[-75.557534,6.289249],[-75.557552,6.289257],[-75.55757,6.289264],[-75.557587,6.289273],[-75.557603,6.289284],[-75.557618,6.289296],[-75.557634,6.289308],[-75.557645,6.289323],[-75.55765,6.289343],[-75.557654,6.289362],[-75.557657,6.28938],[-75.557662,6.289399],[-75.557669,6.289416],[-75.557678,6.289434],[-75.557686,6.28945],[-75.557699,6.289464],[-75.557714,6.289476],[-75.55773,6.289487],[-75.557749,6.289493],[-75.557767,6.289496],[-75.557786,6.289496],[-75.557807,6.289496],[-75.557825,6.289496],[-75.557843,6.289497],[-75.557885,6.289497],[-75.557907,6.289499],[-75.557915,6.289499],[-75.557956,6.289491],[-75.557973,6.289479],[-75.557987,6.289466],[-75.557998,6.289451],[-75.558005,6.289433],[-75.558011,6.289415],[-75.558015,6.289397],[-75.558018,6.289378],[-75.558022,6.289358],[-75.558025,6.289339],[-75.558031,6.28932],[-75.558038,6.289301],[-75.558046,6.289284],[-75.558056,6.289268],[-75.558067,6.289252],[-75.558078,6.289236],[-75.558092,6.289223],[-75.558107,6.28921],[-75.558122,6.289198],[-75.558139,6.28919],[-75.558155,6.28918],[-75.558172,6.289169],[-75.558188,6.28916],[-75.558206,6.28915],[-75.558223,6.289142],[-75.558241,6.289134],[-75.558258,6.289127],[-75.558274,6.289118],[-75.558291,6.289108],[-75.558307,6.289099],[-75.558326,6.289094],[-75.558346,6.28909],[-75.558363,6.289088],[-75.558365,6.289088],[-75.558386,6.289089],[-75.558406,6.28909],[-75.558426,6.289093],[-75.55844,6.289105],[-75.558453,6.289118],[-75.558472,6.289126],[-75.558492,6.289132],[-75.558511,6.289138],[-75.55853,6.289141],[-75.558549,6.289144],[-75.558569,6.289144],[-75.558608,6.289145],[-75.558645,6.289152],[-75.558664,6.289156],[-75.558681,6.289162],[-75.558699,6.28917],[-75.558717,6.289179],[-75.558734,6.289187],[-75.558751,6.289195],[-75.558768,6.289202],[-75.55877,6.289203],[-75.558787,6.289212],[-75.558804,6.289222],[-75.558819,6.289232],[-75.558836,6.289245],[-75.558852,6.289255],[-75.558869,6.289264],[-75.558885,6.289273],[-75.558902,6.289282],[-75.55892,6.289287],[-75.55893,6.289289],[-75.559004,6.289297],[-75.559009,6.289297],[-75.559027,6.289297],[-75.559029,6.289297],[-75.559049,6.289297],[-75.55905,6.289297],[-75.559069,6.289297],[-75.559089,6.289295],[-75.559108,6.289293],[-75.559129,6.289292],[-75.559148,6.289291],[-75.559167,6.289289],[-75.559184,6.289289],[-75.559186,6.289289],[-75.55919,6.289289],[-75.559197,6.289289],[-75.559205,6.289289],[-75.559224,6.289291],[-75.559242,6.289294],[-75.559261,6.289301],[-75.559277,6.289308],[-75.559294,6.289316],[-75.559313,6.289322],[-75.559331,6.289329],[-75.559346,6.289342],[-75.55936,6.289354],[-75.559374,6.289367],[-75.559387,6.289381],[-75.5594,6.289394],[-75.559415,6.289406],[-75.559429,6.289419],[-75.559445,6.289428],[-75.559463,6.289431],[-75.559465,6.289431],[-75.559484,6.28943],[-75.559502,6.289427],[-75.559521,6.289423],[-75.559538,6.289414],[-75.559546,6.289409],[-75.559592,6.289385],[-75.55961,6.28938],[-75.559632,6.289375],[-75.559652,6.289372],[-75.559669,6.289372],[-75.55967,6.289372],[-75.559689,6.289372],[-75.559727,6.289375],[-75.559746,6.289378],[-75.559764,6.289381],[-75.559784,6.289387],[-75.559802,6.289393],[-75.55982,6.289399],[-75.559837,6.289407],[-75.559854,6.289416],[-75.55987,6.289425],[-75.559887,6.289435],[-75.559903,6.289446],[-75.559917,6.289459],[-75.55993,6.289474],[-75.559939,6.289491],[-75.559943,6.28951],[-75.559949,6.289528],[-75.559954,6.289548],[-75.559954,6.289567],[-75.55995,6.289585],[-75.55994,6.289601],[-75.559929,6.289616],[-75.559917,6.289631],[-75.559903,6.289645],[-75.559889,6.289659],[-75.559876,6.289674],[-75.559839,6.289717],[-75.559827,6.289731],[-75.559801,6.289758],[-75.559786,6.289771],[-75.559774,6.289786],[-75.559762,6.2898],[-75.559753,6.289817],[-75.559745,6.289835],[-75.559741,6.289854],[-75.559741,6.289857],[-75.55974,6.289872],[-75.559739,6.28991],[-75.559741,6.28993],[-75.559743,6.289951],[-75.559746,6.28997],[-75.559755,6.289986],[-75.559766,6.290003],[-75.559778,6.290017],[-75.559792,6.290031],[-75.559806,6.290044],[-75.559823,6.290055],[-75.55984,6.29006],[-75.559842,6.290061],[-75.559864,6.29006],[-75.559884,6.290057],[-75.559903,6.290054],[-75.559921,6.290047],[-75.559938,6.290038],[-75.559958,6.290032],[-75.559975,6.290023],[-75.559993,6.290017],[-75.560012,6.290013],[-75.560026,6.290012],[-75.56003,6.290012],[-75.560048,6.290012],[-75.560061,6.290012],[-75.560069,6.290012],[-75.560087,6.290019],[-75.560105,6.290024],[-75.560124,6.290029],[-75.560144,6.290033],[-75.560162,6.290037],[-75.56018,6.290043],[-75.560196,6.290052],[-75.560212,6.290064],[-75.560229,6.290075],[-75.560247,6.290089],[-75.560261,6.290102],[-75.560268,6.290119],[-75.560274,6.290138],[-75.560279,6.290158],[-75.560283,6.290177],[-75.560282,6.290216],[-75.560283,6.290235],[-75.560283,6.290254],[-75.560283,6.290273],[-75.560284,6.290292],[-75.560286,6.290311],[-75.560285,6.290314],[-75.560286,6.290319],[-75.560295,6.290368],[-75.560297,6.290387],[-75.560296,6.290407],[-75.560299,6.290426],[-75.560304,6.290446],[-75.560311,6.290463],[-75.56032,6.290481],[-75.56033,6.290498],[-75.560339,6.290514],[-75.560349,6.29053],[-75.560358,6.290547],[-75.560366,6.290565],[-75.560379,6.2906],[-75.560384,6.290619],[-75.560388,6.290639],[-75.560407,6.290788],[-75.560407,6.290802],[-75.560407,6.290808],[-75.560409,6.290827],[-75.560412,6.290848],[-75.560416,6.290867],[-75.56042,6.290887],[-75.560425,6.290906],[-75.560432,6.290924],[-75.560439,6.290941],[-75.560448,6.290958],[-75.560458,6.290974],[-75.560458,6.290975],[-75.560468,6.290991],[-75.560479,6.291006],[-75.560494,6.291019],[-75.560509,6.291031],[-75.560526,6.291041],[-75.560545,6.291047],[-75.560564,6.291051],[-75.560583,6.291055],[-75.560602,6.291056],[-75.56062,6.291058],[-75.560638,6.291059],[-75.560639,6.291059],[-75.560651,6.291058],[-75.560658,6.291058],[-75.560678,6.291058],[-75.560681,6.291058],[-75.560699,6.291057],[-75.560717,6.291057],[-75.56075,6.291056],[-75.560755,6.291056],[-75.560795,6.291057],[-75.560832,6.291058],[-75.560852,6.29106],[-75.560874,6.29106],[-75.560881,6.291061],[-75.560889,6.291061],[-75.560908,6.291063],[-75.560927,6.291067],[-75.560946,6.291073],[-75.560966,6.291078],[-75.560985,6.291083],[-75.561003,6.291088],[-75.561021,6.291094],[-75.561039,6.291102],[-75.561056,6.29111],[-75.561074,6.29112],[-75.56109,6.29113],[-75.561105,6.291142],[-75.561118,6.291155],[-75.56113,6.29117],[-75.561143,6.291184],[-75.561156,6.291198],[-75.561169,6.291211],[-75.561182,6.291225],[-75.561193,6.29124],[-75.561203,6.291256],[-75.561213,6.291272],[-75.561227,6.291285],[-75.561242,6.291297],[-75.561256,6.291309],[-75.561269,6.291323],[-75.561282,6.291336],[-75.561295,6.291347],[-75.561397,6.291382],[-75.561399,6.291383],[-75.561418,6.291381],[-75.561437,6.291378],[-75.561456,6.291375],[-75.561475,6.291369],[-75.561493,6.291363],[-75.561513,6.291359],[-75.561532,6.291355],[-75.561551,6.291352],[-75.56157,6.291349],[-75.561589,6.291344],[-75.561608,6.291338],[-75.561625,6.291329],[-75.561669,6.291311],[-75.561718,6.291293],[-75.561773,6.291265],[-75.561817,6.291245],[-75.561835,6.291239],[-75.561854,6.291233],[-75.561872,6.291228],[-75.561892,6.291227],[-75.561901,6.291226],[-75.561911,6.291225],[-75.561931,6.291224],[-75.561931,6.291224],[-75.561942,6.291223],[-75.56195,6.291223],[-75.561988,6.291233],[-75.562006,6.291238],[-75.562022,6.291248],[-75.562036,6.291261],[-75.562047,6.291275],[-75.562054,6.291294],[-75.562062,6.291312],[-75.562074,6.29133],[-75.562086,6.291345],[-75.562098,6.29136],[-75.562112,6.291373],[-75.56214,6.291398],[-75.562198,6.291445],[-75.562246,6.291436],[-75.562315,6.291421],[-75.562392,6.291432]]]},"properties":{"OBJECTID_1":20,"Nombre_Comuna":"Aranjuez","Numero_Comuna":4,"Descripcion":"Comunas de la ciudad de Medellín - Antioquia","Periodo":"1980-2014","Fuente":"Elaboración propia del CNMH. Informe: Medellín - Memorias de una guerra urbana","Fecha_Actualizacion":"2022-03-29T00:00:00Z","Shape__Area":0.0003988982774903886,"Shape__Length":0.08715862179126702}}]}
